start=new Date('2021-09-04T00:00:00.000Z').valueOf();
sats=[{"SITE":"AFETR","TIME_SYSTEM":"UTC","RA_OF_ASC_NODE":"358.3673","SEMIMAJOR_AXIS":"6727.667","RCS_SIZE":"LARGE","MEAN_MOTION":"15.73280113","INCLINATION":"53.0484","MEAN_ELEMENT_THEORY":"SGP4","PERIAPSIS":"347.164","CENTER_NAME":"EARTH","MEAN_MOTION_DDOT":"0.0000000000000","CLASSIFICATION_TYPE":"U","PERIOD":"91.529","EPHEMERIS_TYPE":"0","TLE_LINE2":"2 48431  53.0484 358.3673 0003520  11.3339 353.1882 15.73280113  3667","FILE":"3108332","TLE_LINE1":"1 48431U 21040D   21246.91667824 -.00086503  00000-0 -61575-3 0  9996","ARG_OF_PERICENTER":"11.3339","BSTAR":"-0.00061575000000","OBJECT_NAME":"STARLINK-2700","REF_FRAME":"TEME","NORAD_CAT_ID":"48431","ECCENTRICITY":"0.00035200","MEAN_ANOMALY":"353.1882","OBJECT_ID":"2021-040D","ELEMENT_SET_NO":"999","APOAPSIS":"351.900","DECAY_DATE":null,"GP_ID":"184051433","REV_AT_EPOCH":"366","LAUNCH_DATE":"2021-05-09","EPOCH":"2021-09-03T22:00:00.999936","MEAN_MOTION_DOT":"-0.00086503","COUNTRY_CODE":"US","OBJECT_TYPE":"PAYLOAD"},{"SEMIMAJOR_AXIS":"6727.697","RA_OF_ASC_NODE":"358.3677","TIME_SYSTEM":"UTC","SITE":"AFETR","INCLINATION":"53.0486","MEAN_MOTION":"15.73269607","RCS_SIZE":"LARGE","MEAN_MOTION_DDOT":"0.0000000000000","PERIAPSIS":"347.210","CENTER_NAME":"EARTH","MEAN_ELEMENT_THEORY":"SGP4","TLE_LINE1":"1 48432U 21040E   21246.91667824 -.00084003  00000-0 -59792-3 0  9998","FILE":"3108332","TLE_LINE2":"2 48432  53.0486 358.3677 0003495   8.1250 357.0965 15.73269607  3672","PERIOD":"91.529","EPHEMERIS_TYPE":"0","CLASSIFICATION_TYPE":"U","BSTAR":"-0.00059792000000","OBJECT_NAME":"STARLINK-2680","ARG_OF_PERICENTER":"8.1250","OBJECT_ID":"2021-040E","ELEMENT_SET_NO":"999","MEAN_ANOMALY":"357.0965","ECCENTRICITY":"0.00034950","NORAD_CAT_ID":"48432","REF_FRAME":"TEME","GP_ID":"184050836","DECAY_DATE":null,"APOAPSIS":"351.913","OBJECT_TYPE":"PAYLOAD","COUNTRY_CODE":"US","MEAN_MOTION_DOT":"-0.00084003","EPOCH":"2021-09-03T22:00:00.999936","LAUNCH_DATE":"2021-05-09","REV_AT_EPOCH":"367"},{"OBJECT_NAME":"STARLINK-2699","BSTAR":"-0.00063841000000","ARG_OF_PERICENTER":"8.4986","OBJECT_ID":"2021-040F","ELEMENT_SET_NO":"999","REF_FRAME":"TEME","NORAD_CAT_ID":"48433","ECCENTRICITY":"0.00035840","MEAN_ANOMALY":"357.3435","DECAY_DATE":null,"GP_ID":"184051342","APOAPSIS":"351.950","COUNTRY_CODE":"US","OBJECT_TYPE":"PAYLOAD","LAUNCH_DATE":"2021-05-09","REV_AT_EPOCH":"366","EPOCH":"2021-09-03T22:00:00.999936","MEAN_MOTION_DOT":"-0.00089623","RA_OF_ASC_NODE":"358.3658","SEMIMAJOR_AXIS":"6727.674","SITE":"AFETR","TIME_SYSTEM":"UTC","MEAN_MOTION":"15.73277700","INCLINATION":"53.0485","RCS_SIZE":"LARGE","CENTER_NAME":"EARTH","PERIAPSIS":"347.127","MEAN_MOTION_DDOT":"0.0000000000000","MEAN_ELEMENT_THEORY":"SGP4","TLE_LINE1":"1 48433U 21040F   21246.91667824 -.00089623  00000-0 -63841-3 0  9992","PERIOD":"91.529","EPHEMERIS_TYPE":"0","CLASSIFICATION_TYPE":"U","TLE_LINE2":"2 48433  53.0485 358.3658 0003584   8.4986 357.3435 15.73277700  3666","FILE":"3108332"},{"CENTER_NAME":"EARTH","PERIAPSIS":"394.752","MEAN_MOTION_DDOT":"0.0000000000000","MEAN_ELEMENT_THEORY":"SGP4","TLE_LINE1":"1 48434U 21040G   21246.91667824 -.00862475  00000-0 -12724-1 0  9999","TLE_LINE2":"2 48434  53.0496 358.8774 0001280  60.3100  58.8467 15.57250875  3674","FILE":"3108332","PERIOD":"92.471","CLASSIFICATION_TYPE":"U","EPHEMERIS_TYPE":"0","RA_OF_ASC_NODE":"358.8774","SEMIMAJOR_AXIS":"6773.754","TIME_SYSTEM":"UTC","SITE":"AFETR","INCLINATION":"53.0496","MEAN_MOTION":"15.57250875","RCS_SIZE":"LARGE","DECAY_DATE":null,"GP_ID":"184051249","APOAPSIS":"396.487","COUNTRY_CODE":"US","OBJECT_TYPE":"PAYLOAD","EPOCH":"2021-09-03T22:00:00.999936","MEAN_MOTION_DOT":"-0.00862475","REV_AT_EPOCH":"367","LAUNCH_DATE":"2021-05-09","OBJECT_NAME":"STARLINK-2692","BSTAR":"-0.01272400000000","ARG_OF_PERICENTER":"60.3100","ELEMENT_SET_NO":"999","OBJECT_ID":"2021-040G","MEAN_ANOMALY":"58.8467","REF_FRAME":"TEME","ECCENTRICITY":"0.00012800","NORAD_CAT_ID":"48434"},{"TIME_SYSTEM":"UTC","SITE":"AFETR","RA_OF_ASC_NODE":"2.0526","SEMIMAJOR_AXIS":"6874.063","RCS_SIZE":"LARGE","INCLINATION":"53.0476","MEAN_MOTION":"15.23289711","MEAN_ELEMENT_THEORY":"SGP4","PERIAPSIS":"494.966","CENTER_NAME":"EARTH","MEAN_MOTION_DDOT":"0.0000000000000","TLE_LINE2":"2 48435  53.0476   2.0526 0001399  91.3461 139.0250 15.23289711  3644","FILE":"3108332","EPHEMERIS_TYPE":"0","PERIOD":"94.532","CLASSIFICATION_TYPE":"U","TLE_LINE1":"1 48435U 21040H   21246.91667824 -.01064709  00000-0 -48389-1 0  9991","ARG_OF_PERICENTER":"91.3461","BSTAR":"-0.04838900000000","OBJECT_NAME":"STARLINK-2633","MEAN_ANOMALY":"139.0250","REF_FRAME":"TEME","ECCENTRICITY":"0.00013990","NORAD_CAT_ID":"48435","OBJECT_ID":"2021-040H","ELEMENT_SET_NO":"999","APOAPSIS":"496.890","DECAY_DATE":null,"GP_ID":"184051112","EPOCH":"2021-09-03T22:00:00.999936","MEAN_MOTION_DOT":"-0.01064709","LAUNCH_DATE":"2021-05-09","REV_AT_EPOCH":"364","COUNTRY_CODE":"US","OBJECT_TYPE":"PAYLOAD"},{"INCLINATION":"53.0539","MEAN_MOTION":"15.06386766","RCS_SIZE":"LARGE","RA_OF_ASC_NODE":"18.7563","SEMIMAJOR_AXIS":"6925.389","TIME_SYSTEM":"UTC","SITE":"AFETR","TLE_LINE1":"1 48436U 21040J   21246.91667824  .00003773  00000-0  27213-3 0  9998","TLE_LINE2":"2 48436  53.0539  18.7563 0001153  99.6723 347.0309 15.06386766  3566","FILE":"3108332","PERIOD":"95.593","EPHEMERIS_TYPE":"0","CLASSIFICATION_TYPE":"U","PERIAPSIS":"546.456","CENTER_NAME":"EARTH","MEAN_MOTION_DDOT":"0.0000000000000","MEAN_ELEMENT_THEORY":"SGP4","OBJECT_ID":"2021-040J","ELEMENT_SET_NO":"999","MEAN_ANOMALY":"347.0309","REF_FRAME":"TEME","ECCENTRICITY":"0.00011530","NORAD_CAT_ID":"48436","BSTAR":"0.00027213000000","OBJECT_NAME":"STARLINK-2639","ARG_OF_PERICENTER":"99.6723","COUNTRY_CODE":"US","OBJECT_TYPE":"PAYLOAD","EPOCH":"2021-09-03T22:00:00.999936","MEAN_MOTION_DOT":"0.00003773","REV_AT_EPOCH":"356","LAUNCH_DATE":"2021-05-09","DECAY_DATE":null,"GP_ID":"184051159","APOAPSIS":"548.053"},{"ELEMENT_SET_NO":"999","OBJECT_ID":"2021-040K","NORAD_CAT_ID":"48437","ECCENTRICITY":"0.00014240","REF_FRAME":"TEME","MEAN_ANOMALY":"168.2528","OBJECT_NAME":"STARLINK-2642","BSTAR":"0.00095873000000","ARG_OF_PERICENTER":"129.7479","OBJECT_TYPE":"PAYLOAD","COUNTRY_CODE":"US","REV_AT_EPOCH":"355","LAUNCH_DATE":"2021-05-09","MEAN_MOTION_DOT":"0.00013411","EPOCH":"2021-09-03T22:00:00.999936","GP_ID":"184051020","DECAY_DATE":null,"APOAPSIS":"553.253","MEAN_MOTION":"15.04752855","INCLINATION":"53.0544","RCS_SIZE":"LARGE","SEMIMAJOR_AXIS":"6930.401","RA_OF_ASC_NODE":"28.0979","SITE":"AFETR","TIME_SYSTEM":"UTC","TLE_LINE1":"1 48437U 21040K   21246.91667824  .00013411  00000-0  95873-3 0  9996","CLASSIFICATION_TYPE":"U","PERIOD":"95.697","EPHEMERIS_TYPE":"0","FILE":"3108332","TLE_LINE2":"2 48437  53.0544  28.0979 0001424 129.7479 168.2528 15.04752855  3551","MEAN_MOTION_DDOT":"0.0000000000000","PERIAPSIS":"551.280","CENTER_NAME":"EARTH","MEAN_ELEMENT_THEORY":"SGP4"},{"TLE_LINE1":"1 48438U 21040L   21246.91667824  .00004948  00000-0  35078-3 0  9993","EPHEMERIS_TYPE":"0","PERIOD":"95.592","CLASSIFICATION_TYPE":"U","FILE":"3108332","TLE_LINE2":"2 48438  53.0546  18.7592 0000869 114.1112 352.5612 15.06408118  3560","MEAN_MOTION_DDOT":"0.0000000000000","CENTER_NAME":"EARTH","PERIAPSIS":"546.587","MEAN_ELEMENT_THEORY":"SGP4","MEAN_MOTION":"15.06408118","INCLINATION":"53.0546","RCS_SIZE":"LARGE","SEMIMAJOR_AXIS":"6925.324","RA_OF_ASC_NODE":"18.7592","SITE":"AFETR","TIME_SYSTEM":"UTC","OBJECT_TYPE":"PAYLOAD","COUNTRY_CODE":"US","REV_AT_EPOCH":"356","LAUNCH_DATE":"2021-05-09","MEAN_MOTION_DOT":"0.00004948","EPOCH":"2021-09-03T22:00:00.999936","GP_ID":"184050926","DECAY_DATE":null,"APOAPSIS":"547.790","OBJECT_ID":"2021-040L","ELEMENT_SET_NO":"999","NORAD_CAT_ID":"48438","ECCENTRICITY":"0.00008690","REF_FRAME":"TEME","MEAN_ANOMALY":"352.5612","BSTAR":"0.00035078000000","OBJECT_NAME":"STARLINK-2640","ARG_OF_PERICENTER":"114.1112"},{"GP_ID":"184051434","DECAY_DATE":null,"APOAPSIS":"548.047","OBJECT_TYPE":"PAYLOAD","COUNTRY_CODE":"US","LAUNCH_DATE":"2021-05-09","REV_AT_EPOCH":"356","MEAN_MOTION_DOT":"0.00004574","EPOCH":"2021-09-03T22:00:00.999936","BSTAR":"0.00032579000000","OBJECT_NAME":"STARLINK-2583","ARG_OF_PERICENTER":"106.1149","ELEMENT_SET_NO":"999","OBJECT_ID":"2021-040M","ECCENTRICITY":"0.00011860","NORAD_CAT_ID":"48439","REF_FRAME":"TEME","MEAN_ANOMALY":"20.5583","MEAN_MOTION_DDOT":"0.0000000000000","PERIAPSIS":"546.404","CENTER_NAME":"EARTH","MEAN_ELEMENT_THEORY":"SGP4","TLE_LINE1":"1 48439U 21040M   21246.91667824  .00004574  00000-0  32579-3 0  9992","PERIOD":"95.592","EPHEMERIS_TYPE":"0","CLASSIFICATION_TYPE":"U","FILE":"3108332","TLE_LINE2":"2 48439  53.0560  18.7550 0001186 106.1149  20.5583 15.06396066  3562","SEMIMAJOR_AXIS":"6925.361","RA_OF_ASC_NODE":"18.7550","SITE":"AFETR","TIME_SYSTEM":"UTC","MEAN_MOTION":"15.06396066","INCLINATION":"53.0560","RCS_SIZE":"LARGE"},{"MEAN_ELEMENT_THEORY":"SGP4","CENTER_NAME":"EARTH","PERIAPSIS":"546.347","MEAN_MOTION_DDOT":"0.0000000000000","TLE_LINE2":"2 48440  53.0539  18.7448 0001274 102.7447  43.9347 15.06394841  3563","FILE":"3108332","CLASSIFICATION_TYPE":"U","PERIOD":"95.592","EPHEMERIS_TYPE":"0","TLE_LINE1":"1 48440U 21040N   21246.91667824  .00003711  00000-0  26790-3 0  9994","TIME_SYSTEM":"UTC","SITE":"AFETR","RA_OF_ASC_NODE":"18.7448","SEMIMAJOR_AXIS":"6925.364","RCS_SIZE":"LARGE","INCLINATION":"53.0539","MEAN_MOTION":"15.06394841","APOAPSIS":"548.112","DECAY_DATE":null,"GP_ID":"184050837","EPOCH":"2021-09-03T22:00:00.999936","MEAN_MOTION_DOT":"0.00003711","REV_AT_EPOCH":"356","LAUNCH_DATE":"2021-05-09","COUNTRY_CODE":"US","OBJECT_TYPE":"PAYLOAD","ARG_OF_PERICENTER":"102.7447","OBJECT_NAME":"STARLINK-2682","BSTAR":"0.00026790000000","MEAN_ANOMALY":"43.9347","REF_FRAME":"TEME","ECCENTRICITY":"0.00012740","NORAD_CAT_ID":"48440","OBJECT_ID":"2021-040N","ELEMENT_SET_NO":"999"}];
